ONEWEB-0012             
1 44057U 19010A   25302.45040959  .00000024  00000+0  28253-4 0  9998
2 44057  87.8978 274.7557 0001474  88.7924 271.3376 13.16595537321202
ONEWEB-0010             
1 44058U 19010B   25302.47574152  .00000033  00000+0  51574-4 0  9990
2 44058  87.8990 274.7361 0002211  92.5250 267.6134 13.16595810321254
ONEWEB-0008             
1 44059U 19010C   25302.42506212 -.00000202  00000+0 -56218-3 0  9997
2 44059  87.8987 274.7426 0001915  79.2602 280.8744 13.16593969321365
ONEWEB-0007             
1 44060U 19010D   25302.50505985 -.00000011  00000+0 -64540-4 0  9990
2 44060  87.8959 305.2646 0001876 100.8046 259.3295 13.15549149321046
ONEWEB-0006             
1 44061U 19010E   25302.50901972 -.00000080  00000+0 -24586-3 0  9998
2 44061  87.8966 305.2073 0002006  98.3473 261.7885 13.15548314321090
ONEWEB-0011             
1 44062U 19010F   25302.47731764  .00000089  00000+0  20351-3 0  9998
2 44062  87.8965 305.2243 0002042  89.2001 270.9363 13.15549246321082
ONEWEB-0013             
1 45131U 20008A   25302.48394403 -.00000117  00000+0 -37691-3 0  9990
2 45131  87.8474  99.4160 0000598 109.3429 250.7763 13.09440968275876
ONEWEB-0017             
1 45132U 20008B   25302.40008363  .00000229  00000+0  62041-3 0  9999
2 45132  87.8769  82.2815 0001839  97.7479 262.3857 13.10369998277729
ONEWEB-0020             
1 45133U 20008C   25302.44656204  .00000400  00000+0  11090-2 0  9995
2 45133  87.8783  82.2571 0001635  85.9868 274.1447 13.10375723278124
ONEWEB-0021             
1 45134U 20008D   25302.38515343  .00000772  00000+0  21754-2 0  9997
2 45134  87.8770  82.3014 0001558  98.8527 261.2777 13.10374161278424
ONEWEB-0023             
1 45136U 20008F   25302.39592910  .00000417  00000+0  11574-2 0  9990
2 45136  87.8770  82.2815 0001415  88.1647 271.9642 13.10369320277857
ONEWEB-0024             
1 45137U 20008G   25302.44490131  .00000295  00000+0  80841-3 0  9997
2 45137  87.8795  82.2325 0001616  95.8057 264.3254 13.10375304278028
ONEWEB-0025             
1 45138U 20008H   25302.46233433  .00000715  00000+0  20129-2 0  9999
2 45138  87.8781  82.2366 0001259 102.4514 257.6754 13.10373372278354
ONEWEB-0026             
1 45139U 20008J   25302.36082895  .00000080  00000+0  19071-3 0  9993
2 45139  87.8846  67.0303 0001781  97.0586 263.0744 13.11416569280852
ONEWEB-0028             
1 45140U 20008K   25302.39389543 -.00000093  00000+0 -29814-3 0  9990
2 45140  87.8840  67.0420 0001007 111.3252 248.7984 13.11419477278370
ONEWEB-0032             
1 45141U 20008L   25302.40173742  .00000200  00000+0  53747-3 0  9995
2 45141  87.8768  82.2808 0001376  94.9407 265.1877 13.10369868278074
ONEWEB-0033             
1 45142U 20008M   25302.45321073  .00000597  00000+0  16746-2 0  9999
2 45142  87.8774  82.2833 0001738  95.3999 264.7327 13.10373788277994
