[{"OBJECT_NAME":"ONEWEB-0012","OBJECT_ID":"2019-010A","EPOCH":"2025-10-29T10:48:35.388576","MEAN_MOTION":13.16595537,"ECCENTRICITY":0.0001474,"INCLINATION":87.8978,"RA_OF_ASC_NODE":274.7557,"ARG_OF_PERICENTER":88.7924,"MEAN_ANOMALY":271.3376,"EPHEMERIS_TYPE":0,"CLASSIFICATION_TYPE":"U","NORAD_CAT_ID":44057,"ELEMENT_SET_NO":999,"REV_AT_EPOCH":32120,"BSTAR":2.8253e-5,"MEAN_MOTION_DOT":2.4e-7,"MEAN_MOTION_DDOT":0},{"OBJECT_NAME":"ONEWEB-0010","OBJECT_ID":"2019-010B","EPOCH":"2025-10-29T11:25:04.067328","MEAN_MOTION":13.1659581,"ECCENTRICITY":0.0002211,"INCLINATION":87.899,"RA_OF_ASC_NODE":274.7361,"ARG_OF_PERICENTER":92.525,"MEAN_ANOMALY":267.6134,"EPHEMERIS_TYPE":0,"CLASSIFICATION_TYPE":"U","NORAD_CAT_ID":44058,"ELEMENT_SET_NO":999,"REV_AT_EPOCH":32125,"BSTAR":5.1574e-5,"MEAN_MOTION_DOT":3.3e-7,"MEAN_MOTION_DDOT":0},{"OBJECT_NAME":"ONEWEB-0008","OBJECT_ID":"2019-010C","EPOCH":"2025-10-29T10:12:05.367168","MEAN_MOTION":13.16593969,"ECCENTRICITY":0.0001915,"INCLINATION":87.8987,"RA_OF_ASC_NODE":274.7426,"ARG_OF_PERICENTER":79.2602,"MEAN_ANOMALY":280.8744,"EPHEMERIS_TYPE":0,"CLASSIFICATION_TYPE":"U","NORAD_CAT_ID":44059,"ELEMENT_SET_NO":999,"REV_AT_EPOCH":32136,"BSTAR":-0.00056218,"MEAN_MOTION_DOT":-2.02e-6,"MEAN_MOTION_DDOT":0},{"OBJECT_NAME":"ONEWEB-0007","OBJECT_ID":"2019-010D","EPOCH":"2025-10-29T12:07:17.171040","MEAN_MOTION":13.15549149,"ECCENTRICITY":0.0001876,"INCLINATION":87.8959,"RA_OF_ASC_NODE":305.2646,"ARG_OF_PERICENTER":100.8046,"MEAN_ANOMALY":259.3295,"EPHEMERIS_TYPE":0,"CLASSIFICATION_TYPE":"U","NORAD_CAT_ID":44060,"ELEMENT_SET_NO":999,"REV_AT_EPOCH":32104,"BSTAR":-6.454e-5,"MEAN_MOTION_DOT":-1.1e-7,"MEAN_MOTION_DDOT":0},{"OBJECT_NAME":"ONEWEB-0006","OBJECT_ID":"2019-010E","EPOCH":"2025-10-29T12:12:59.303808","MEAN_MOTION":13.15548314,"ECCENTRICITY":0.0002006,"INCLINATION":87.8966,"RA_OF_ASC_NODE":305.2073,"ARG_OF_PERICENTER":98.3473,"MEAN_ANOMALY":261.7885,"EPHEMERIS_TYPE":0,"CLASSIFICATION_TYPE":"U","NORAD_CAT_ID":44061,"ELEMENT_SET_NO":999,"REV_AT_EPOCH":32109,"BSTAR":-0.00024586,"MEAN_MOTION_DOT":-8.0e-7,"MEAN_MOTION_DDOT":0},{"OBJECT_NAME":"ONEWEB-0011","OBJECT_ID":"2019-010F","EPOCH":"2025-10-29T11:27:20.244096","MEAN_MOTION":13.15549246,"ECCENTRICITY":0.0002042,"INCLINATION":87.8965,"RA_OF_ASC_NODE":305.2243,"ARG_OF_PERICENTER":89.2001,"MEAN_ANOMALY":270.9363,"EPHEMERIS_TYPE":0,"CLASSIFICATION_TYPE":"U","NORAD_CAT_ID":44062,"ELEMENT_SET_NO":999,"REV_AT_EPOCH":32108,"BSTAR":0.00020351,"MEAN_MOTION_DOT":8.9e-7,"MEAN_MOTION_DDOT":0},{"OBJECT_NAME":"ONEWEB-0013","OBJECT_ID":"2020-008A","EPOCH":"2025-10-29T11:36:52.764192","MEAN_MOTION":13.09440968,"ECCENTRICITY":5.98e-5,"INCLINATION":87.8474,"RA_OF_ASC_NODE":99.416,"ARG_OF_PERICENTER":109.3429,"MEAN_ANOMALY":250.7763,"EPHEMERIS_TYPE":0,"CLASSIFICATION_TYPE":"U","NORAD_CAT_ID":45131,"ELEMENT_SET_NO":999,"REV_AT_EPOCH":27587,"BSTAR":-0.00037691,"MEAN_MOTION_DOT":-1.17e-6,"MEAN_MOTION_DDOT":0},{"OBJECT_NAME":"ONEWEB-0017","OBJECT_ID":"2020-008B","EPOCH":"2025-10-29T09:36:07.225632","MEAN_MOTION":13.10369998,"ECCENTRICITY":0.0001839,"INCLINATION":87.8769,"RA_OF_ASC_NODE":82.2815,"ARG_OF_PERICENTER":97.7479,"MEAN_ANOMALY":262.3857,"EPHEMERIS_TYPE":0,"CLASSIFICATION_TYPE":"U","NORAD_CAT_ID":45132,"ELEMENT_SET_NO":999,"REV_AT_EPOCH":27772,"BSTAR":0.00062041,"MEAN_MOTION_DOT":2.29e-6,"MEAN_MOTION_DDOT":0},{"OBJECT_NAME":"ONEWEB-0020","OBJECT_ID":"2020-008C","EPOCH":"2025-10-29T10:43:02.960256","MEAN_MOTION":13.10375723,"ECCENTRICITY":0.0001635,"INCLINATION":87.8783,"RA_OF_ASC_NODE":82.2571,"ARG_OF_PERICENTER":85.9868,"MEAN_ANOMALY":274.1447,"EPHEMERIS_TYPE":0,"CLASSIFICATION_TYPE":"U","NORAD_CAT_ID":45133,"ELEMENT_SET_NO":999,"REV_AT_EPOCH":27812,"BSTAR":0.001109,"MEAN_MOTION_DOT":4.0e-6,"MEAN_MOTION_DDOT":0},{"OBJECT_NAME":"ONEWEB-0021","OBJECT_ID":"2020-008D","EPOCH":"2025-10-29T09:14:37.256352","MEAN_MOTION":13.10374161,"ECCENTRICITY":0.0001558,"INCLINATION":87.877,"RA_OF_ASC_NODE":82.3014,"ARG_OF_PERICENTER":98.8527,"MEAN_ANOMALY":261.2777,"EPHEMERIS_TYPE":0,"CLASSIFICATION_TYPE":"U","NORAD_CAT_ID":45134,"ELEMENT_SET_NO":999,"REV_AT_EPOCH":27842,"BSTAR":0.0021754,"MEAN_MOTION_DOT":7.72e-6,"MEAN_MOTION_DDOT":0},{"OBJECT_NAME":"ONEWEB-0023","OBJECT_ID":"2020-008F","EPOCH":"2025-10-29T09:30:08.274240","MEAN_MOTION":13.1036932,"ECCENTRICITY":0.0001415,"INCLINATION":87.877,"RA_OF_ASC_NODE":82.2815,"ARG_OF_PERICENTER":88.1647,"MEAN_ANOMALY":271.9642,"EPHEMERIS_TYPE":0,"CLASSIFICATION_TYPE":"U","NORAD_CAT_ID":45136,"ELEMENT_SET_NO":999,"REV_AT_EPOCH":27785,"BSTAR":0.0011574,"MEAN_MOTION_DOT":4.17e-6,"MEAN_MOTION_DDOT":0},{"OBJECT_NAME":"ONEWEB-0024","OBJECT_ID":"2020-008G","EPOCH":"2025-10-29T10:40:39.473184","MEAN_MOTION":13.10375304,"ECCENTRICITY":0.0001616,"INCLINATION":87.8795,"RA_OF_ASC_NODE":82.2325,"ARG_OF_PERICENTER":95.8057,"MEAN_ANOMALY":264.3254,"EPHEMERIS_TYPE":0,"CLASSIFICATION_TYPE":"U","NORAD_CAT_ID":45137,"ELEMENT_SET_NO":999,"REV_AT_EPOCH":27802,"BSTAR":0.00080841,"MEAN_MOTION_DOT":2.95e-6,"MEAN_MOTION_DDOT":0},{"OBJECT_NAME":"ONEWEB-0025","OBJECT_ID":"2020-008H","EPOCH":"2025-10-29T11:05:45.686112","MEAN_MOTION":13.10373372,"ECCENTRICITY":0.0001259,"INCLINATION":87.8781,"RA_OF_ASC_NODE":82.2366,"ARG_OF_PERICENTER":102.4514,"MEAN_ANOMALY":257.6754,"EPHEMERIS_TYPE":0,"CLASSIFICATION_TYPE":"U","NORAD_CAT_ID":45138,"ELEMENT_SET_NO":999,"REV_AT_EPOCH":27835,"BSTAR":0.0020129,"MEAN_MOTION_DOT":7.15e-6,"MEAN_MOTION_DDOT":0},{"OBJECT_NAME":"ONEWEB-0026","OBJECT_ID":"2020-008J","EPOCH":"2025-10-29T08:39:35.621280","MEAN_MOTION":13.11416569,"ECCENTRICITY":0.0001781,"INCLINATION":87.8846,"RA_OF_ASC_NODE":67.0303,"ARG_OF_PERICENTER":97.0586,"MEAN_ANOMALY":263.0744,"EPHEMERIS_TYPE":0,"CLASSIFICATION_TYPE":"U","NORAD_CAT_ID":45139,"ELEMENT_SET_NO":999,"REV_AT_EPOCH":28085,"BSTAR":0.00019071,"MEAN_MOTION_DOT":8.0e-7,"MEAN_MOTION_DDOT":0},{"OBJECT_NAME":"ONEWEB-0028","OBJECT_ID":"2020-008K","EPOCH":"2025-10-29T09:27:12.565152","MEAN_MOTION":13.11419477,"ECCENTRICITY":0.0001007,"INCLINATION":87.884,"RA_OF_ASC_NODE":67.042,"ARG_OF_PERICENTER":111.3252,"MEAN_ANOMALY":248.7984,"EPHEMERIS_TYPE":0,"CLASSIFICATION_TYPE":"U","NORAD_CAT_ID":45140,"ELEMENT_SET_NO":999,"REV_AT_EPOCH":27837,"BSTAR":-0.00029814,"MEAN_MOTION_DOT":-9.3e-7,"MEAN_MOTION_DDOT":0},{"OBJECT_NAME":"ONEWEB-0032","OBJECT_ID":"2020-008L","EPOCH":"2025-10-29T09:38:30.113088","MEAN_MOTION":13.10369868,"ECCENTRICITY":0.0001376,"INCLINATION":87.8768,"RA_OF_ASC_NODE":82.2808,"ARG_OF_PERICENTER":94.9407,"MEAN_ANOMALY":265.1877,"EPHEMERIS_TYPE":0,"CLASSIFICATION_TYPE":"U","NORAD_CAT_ID":45141,"ELEMENT_SET_NO":999,"REV_AT_EPOCH":27807,"BSTAR":0.00053747,"MEAN_MOTION_DOT":2.0e-6,"MEAN_MOTION_DDOT":0},{"OBJECT_NAME":"ONEWEB-0033","OBJECT_ID":"2020-008M","EPOCH":"2025-10-29T10:52:37.407072","MEAN_MOTION":13.10373788,"ECCENTRICITY":0.0001738,"INCLINATION":87.8774,"RA_OF_ASC_NODE":82.2833,"ARG_OF_PERICENTER":95.3999,"MEAN_ANOMALY":264.7327,"EPHEMERIS_TYPE":0,"CLASSIFICATION_TYPE":"U","NORAD_CAT_ID":45142,"ELEMENT_SET_NO":999,"REV_AT_EPOCH":27799,"BSTAR":0.0016746,"MEAN_MOTION_DOT":5.97e-6,"MEAN_MOTION_DDOT":0}]
